{
  "links" : {
    "next" : "https://api.nasa.gov/neo/rest/v1/feed?start_date=2001-03-16&end_date=2001-03-16&detailed=true&api_key=t0TVs3DtDT2H8Oy2Zy8m2eVrNsAVKAexjcZXUckd",
    "prev" : "https://api.nasa.gov/neo/rest/v1/feed?start_date=2001-03-14&end_date=2001-03-14&detailed=true&api_key=t0TVs3DtDT2H8Oy2Zy8m2eVrNsAVKAexjcZXUckd",
    "self" : "https://api.nasa.gov/neo/rest/v1/feed?start_date=2001-03-15&end_date=2001-03-15&detailed=true&api_key=t0TVs3DtDT2H8Oy2Zy8m2eVrNsAVKAexjcZXUckd"
  },
  "element_count" : 5,
  "near_earth_objects" : {
    "2001-03-15" : [ {
      "links" : {
        "self" : "https://api.nasa.gov/neo/rest/v1/neo/2088254?api_key=t0TVs3DtDT2H8Oy2Zy8m2eVrNsAVKAexjcZXUckd"
      },
      "neo_reference_id" : "2088254",
      "name" : "88254 (2001 FM129)",
      "nasa_jpl_url" : "http://ssd.jpl.nasa.gov/sbdb.cgi?sstr=2088254",
      "absolute_magnitude_h" : 17.6,
      "estimated_diameter" : {
        "kilometers" : {
          "estimated_diameter_min" : 0.8027031673,
          "estimated_diameter_max" : 1.7948988478
        },
        "meters" : {
          "estimated_diameter_min" : 802.7031672829,
          "estimated_diameter_max" : 1794.8988477988
        },
        "miles" : {
          "estimated_diameter_min" : 0.4987764698,
          "estimated_diameter_max" : 1.115298092
        },
        "feet" : {
          "estimated_diameter_min" : 2633.5406593483,
          "estimated_diameter_max" : 5888.7759358124
        }
      },
      "is_potentially_hazardous_asteroid" : true,
      "close_approach_data" : [ {
        "close_approach_date" : "2001-03-15",
        "epoch_date_close_approach" : 984643200000,
        "relative_velocity" : {
          "kilometers_per_second" : "24.1535691723",
          "kilometers_per_hour" : "86952.8490201806",
          "miles_per_hour" : "54029.1188814561"
        },
        "miss_distance" : {
          "astronomical" : "0.1411960869",
          "lunar" : "54.92527771",
          "kilometers" : "21122634",
          "miles" : "13124996"
        },
        "orbiting_body" : "Earth"
      } ],
      "orbital_data" : {
        "orbit_id" : "121",
        "orbit_determination_date" : "2017-08-16 06:21:37",
        "orbit_uncertainty" : "0",
        "minimum_orbit_intersection" : ".0100036",
        "jupiter_tisserand_invariant" : "5.142",
        "epoch_osculation" : "2458000.5",
        "eccentricity" : ".6296879623294294",
        "semi_major_axis" : "1.182134944476101",
        "inclination" : "1.521417366146007",
        "ascending_node_longitude" : "272.26806726401",
        "orbital_period" : "469.4604493092067",
        "perihelion_distance" : ".4377588000905317",
        "perihelion_argument" : "140.0316773687173",
        "aphelion_distance" : "1.92651108886167",
        "perihelion_time" : "2458035.258191389126",
        "mean_anomaly" : "333.3461063258945",
        "mean_motion" : ".7668377613699437",
        "equinox" : "J2000"
      }
    }, {
      "links" : {
        "self" : "https://api.nasa.gov/neo/rest/v1/neo/3370167?api_key=t0TVs3DtDT2H8Oy2Zy8m2eVrNsAVKAexjcZXUckd"
      },
      "neo_reference_id" : "3370167",
      "name" : "(2007 EF)",
      "nasa_jpl_url" : "http://ssd.jpl.nasa.gov/sbdb.cgi?sstr=3370167",
      "absolute_magnitude_h" : 21.4,
      "estimated_diameter" : {
        "kilometers" : {
          "estimated_diameter_min" : 0.1394938229,
          "estimated_diameter_max" : 0.3119176705
        },
        "meters" : {
          "estimated_diameter_min" : 139.4938229344,
          "estimated_diameter_max" : 311.9176705226
        },
        "miles" : {
          "estimated_diameter_min" : 0.0866774163,
          "estimated_diameter_max" : 0.1938165949
        },
        "feet" : {
          "estimated_diameter_min" : 457.6569140361,
          "estimated_diameter_max" : 1023.3519701574
        }
      },
      "is_potentially_hazardous_asteroid" : true,
      "close_approach_data" : [ {
        "close_approach_date" : "2001-03-15",
        "epoch_date_close_approach" : 984643200000,
        "relative_velocity" : {
          "kilometers_per_second" : "26.4758430875",
          "kilometers_per_hour" : "95313.0351149644",
          "miles_per_hour" : "59223.8134024066"
        },
        "miss_distance" : {
          "astronomical" : "0.4187581249",
          "lunar" : "162.8969116211",
          "kilometers" : "62645324",
          "miles" : "38926000"
        },
        "orbiting_body" : "Earth"
      } ],
      "orbital_data" : {
        "orbit_id" : "26",
        "orbit_determination_date" : "2017-04-06 09:06:52",
        "orbit_uncertainty" : "1",
        "minimum_orbit_intersection" : ".02399",
        "jupiter_tisserand_invariant" : "7.016",
        "epoch_osculation" : "2458000.5",
        "eccentricity" : ".4101333687361926",
        "semi_major_axis" : ".8203222078396782",
        "inclination" : "21.73466211109749",
        "ascending_node_longitude" : "158.3762559267166",
        "orbital_period" : "271.3783079653338",
        "perihelion_distance" : ".4838806972892799",
        "perihelion_argument" : "226.0087131127022",
        "aphelion_distance" : "1.156763718390077",
        "perihelion_time" : "2457895.460838374853",
        "mean_anomaly" : "139.3409018891939",
        "mean_motion" : "1.326561443687632",
        "equinox" : "J2000"
      }
    }, {
      "links" : {
        "self" : "https://api.nasa.gov/neo/rest/v1/neo/3445082?api_key=t0TVs3DtDT2H8Oy2Zy8m2eVrNsAVKAexjcZXUckd"
      },
      "neo_reference_id" : "3445082",
      "name" : "(2009 BL71)",
      "nasa_jpl_url" : "http://ssd.jpl.nasa.gov/sbdb.cgi?sstr=3445082",
      "absolute_magnitude_h" : 22.0,
      "estimated_diameter" : {
        "kilometers" : {
          "estimated_diameter_min" : 0.1058168859,
          "estimated_diameter_max" : 0.2366137501
        },
        "meters" : {
          "estimated_diameter_min" : 105.8168859331,
          "estimated_diameter_max" : 236.6137501138
        },
        "miles" : {
          "estimated_diameter_min" : 0.0657515442,
          "estimated_diameter_max" : 0.1470249225
        },
        "feet" : {
          "estimated_diameter_min" : 347.1682720448,
          "estimated_diameter_max" : 776.2918559233
        }
      },
      "is_potentially_hazardous_asteroid" : true,
      "close_approach_data" : [ {
        "close_approach_date" : "2001-03-15",
        "epoch_date_close_approach" : 984643200000,
        "relative_velocity" : {
          "kilometers_per_second" : "22.618323792",
          "kilometers_per_hour" : "81425.9656511842",
          "miles_per_hour" : "50594.928490315"
        },
        "miss_distance" : {
          "astronomical" : "0.4604192792",
          "lunar" : "179.1030883789",
          "kilometers" : "68877744",
          "miles" : "42798644"
        },
        "orbiting_body" : "Earth"
      } ],
      "orbital_data" : {
        "orbit_id" : "12",
        "orbit_determination_date" : "2017-04-06 09:01:30",
        "orbit_uncertainty" : "5",
        "minimum_orbit_intersection" : ".0100462",
        "jupiter_tisserand_invariant" : "6.370",
        "epoch_osculation" : "2458000.5",
        "eccentricity" : ".2657082521539904",
        "semi_major_axis" : ".9366357867747175",
        "inclination" : "5.553633080143872",
        "ascending_node_longitude" : "17.61988723056944",
        "orbital_period" : "331.0964678123565",
        "perihelion_distance" : ".6877639289659296",
        "perihelion_argument" : "292.4011018560315",
        "aphelion_distance" : "1.185507644583505",
        "perihelion_time" : "2458004.305139540592",
        "mean_anomaly" : "355.8626854473442",
        "mean_motion" : "1.087296407535293",
        "equinox" : "J2000"
      }
    } ]
  }
}